EUTELSAT 8 WEST B       
1 40875U 15039B   26010.94904875 -.00000051  00000+0  00000+0 0  9992
2 40875   0.0643  11.3371 0004183 276.9482 155.8474  1.00272121 38088
EUTELSAT 9B             
1 41310U 16005A   26010.95234211  .00000075  00000+0  00000+0 0  9997
2 41310   0.0229  48.0346 0004500 239.8812 174.3787  1.00270062 36544
EUTELSAT 65 WEST A      
1 41382U 16014A   26010.93769536 -.00000262  00000+0  00000+0 0  9996
2 41382   0.0556 329.8161 0002241 326.4184  86.5838  1.00271000 35954
EUTELSAT 117 WEST B     
1 41589U 16038B   26009.67752119 -.00000002  00000+0  00000+0 0  9991
2 41589   0.0076 161.2518 0000107 331.7679 103.1040  1.00271485 35072
EUTELSAT 172B           
1 42741U 17029B   26010.91334187  .00000008  00000+0  00000+0 0  9998
2 42741   0.0302 126.2774 0000066 334.8409 150.0902  1.00271428 32150
EUTELSAT 7C             
1 44334U 19034B   26010.95199544  .00000062  00000+0  00000+0 0  9996
2 44334   0.0759 180.8090 0003158  94.4858 184.8662  1.00271559  5259
EUTELSAT 5 WEST B       
1 44624U 19067A   26010.94956876 -.00000028  00000+0  00000+0 0  9995
2 44624   0.0645 341.9651 0003124 310.7036 154.6263  1.00272533 22864
EUTELSAT KONNECT        
1 45027U 20005B   26010.95199544  .00000063  00000+0  00000+0 0  9997
2 45027   0.0683  93.8495 0001190 190.9511 175.5643  1.00271536 22765
